IRIDIUM 8 [+]           
1 24792U 97020A   13241.40126895  .00000249  00000-0  81674-4 0  4819
2 24792  86.4025 178.7480 0002171  97.5693 262.5750 14.34224085854283
IRIDIUM 7 [+]           
1 24793U 97020B   13240.98958693  .00000248  00000-0  81475-4 0  4752
2 24793  86.4028 179.1261 0002203  98.9199 329.4536 14.34223715854229
IRIDIUM 6 [+]           
1 24794U 97020C   13241.38858759  .00000256  00000-0  84495-4 0  2763
2 24794  86.4027 178.9209 0002042 102.7469 257.3955 14.34224139854284
IRIDIUM 5 [+]           
1 24795U 97020D   13241.31246804  .00000266  00000-0  87771-4 0  6742
2 24795  86.4023 179.0524 0002691 101.2792 258.8706 14.34224201854354
IRIDIUM 4 [-]           
1 24796U 97020E   13241.40380226  .00000198  00000-0  63490-4 0  5150
2 24796  86.4022 178.5786 0002106  97.6884  20.3571 14.34409127854308
IRIDIUM 914 [-]         
1 24836U 97030A   13241.46383005  .00000250  00000-0  76189-4 0   489
2 24836  86.3977 199.0143 0002034  58.5472  90.7277 14.38003866849453
IRIDIUM 12 [+]          
1 24837U 97030B   13241.49706709  .00000115  00000-0  33932-4 0  4903
2 24837  86.3977 210.1071 0002285  98.9578  50.5215 14.34219369848045
IRIDIUM 10 [+]          
1 24839U 97030D   13241.48419898  .00000111  00000-0  32719-4 0  4890
2 24839  86.3977 210.1006 0002257  99.7601  48.7705 14.34219481848059
IRIDIUM 13 [+]          
1 24840U 97030E   13241.50351528  .00000115  00000-0  34149-4 0  4398
2 24840  86.3979 210.2034 0002214 100.8836  49.1167 14.34219185848049
IRIDIUM 16 [-]          
1 24841U 97030F   13241.49315610  .00000224  00000-0  70486-4 0  4585
2 24841  86.4056 210.8160 0003771 117.7049  31.3207 14.35880260848389
IRIDIUM 911 [-]         
1 24842U 97030G   13241.49076155  .00000301  00000-0  82338-4 0  1429
2 24842  86.4479 212.3670 0015215  25.9276 122.5021 14.43941378852615
IRIDIUM 15 [+]          
1 24869U 97034A   13241.49693141  .00000092  00000-0  25614-4 0  5393
2 24869  86.3928 241.8042 0002406 102.2425  61.6512 14.34218674845015
IRIDIUM 17 [-]          
1 24870U 97034B   13241.46758788  .00000237  00000-0  76492-4 0  4515
2 24870  86.3931 241.2953 0002387 103.3599  50.1956 14.34999049845093
IRIDIUM 920 [-]         
1 24871U 97034C   13241.48917119  .00000216  00000-0  64128-4 0   890
2 24871  86.3956 230.8018 0010918 212.6241 294.0137 14.38673885846760
IRIDIUM 18 [+]          
1 24872U 97034D   13241.42715613  .00000030  00000-0  37113-5 0  4613
2 24872  86.3930 242.0299 0002389 106.9420 253.2038 14.34217903845000
IRIDIUM 921 [-]         
1 24873U 97034E   13241.44343641  .00002575  00000-0  19467-3 0  5789
2 24873  86.3888 358.7636 0009621  54.7733 348.0153 15.01876249879003
IRIDIUM 26 [-]          
1 24903U 97043A   13241.41269700  .00000215  00000-0  69243-4 0  5971
2 24903  86.3964 115.5822 0002045 106.7889  20.0428 14.34566427838951
IRIDIUM 25 [+]          
1 24904U 97043B   13241.23587220  .00000226  00000-0  73673-4 0  4919
2 24904  86.3961 115.6419 0002086 100.5104 259.6327 14.34218755838887
IRIDIUM 46 [+]          
1 24905U 97043C   13241.27524606  .00000221  00000-0  71803-4 0  5035
2 24905  86.3971 116.0493 0002040 101.5313  36.3264 14.34218802838893
IRIDIUM 23 [S]          
1 24906U 97043D   13241.25079970  .00000217  00000-0  70396-4 0  5113
2 24906  86.3959 115.5499 0002067 101.9571  37.7823 14.34220832838891
IRIDIUM 22 [+]          
1 24907U 97043E   13241.24345431  .00000037  00000-0  61881-5 0  4705
2 24907  86.3973 116.1455 0002092 100.2366  37.2173 14.34218299838896
DUMMY MASS 1 [-]        
1 24925U 97048A   13240.76618225  .00000202  00000-0  20729-4 0  5890
2 24925  86.3390 323.2132 0004942 260.1083 250.8426 14.84375554865561
DUMMY MASS 2 [-]        
1 24926U 97048B   13240.45008182  .00000153  00000-0  14967-4 0  5816
2 24926  86.3390 324.2474 0005637 271.1311 211.2102 14.84151554865395
IRIDIUM 29 [+]          
1 24944U 97051A   13241.29635322  .00000276  00000-0  91527-4 0  4222
2 24944  86.4015 147.2261 0002118  97.8890 262.2547 14.34221345835479
IRIDIUM 32 [+]          
1 24945U 97051B   13241.10607752  .00000097  00000-0  27454-4 0  4701
2 24945  86.4015 147.3298 0002074  98.8519 261.2911 14.34220154835461
IRIDIUM 33 [-]          
1 24946U 97051C   13241.35544708  .00000163  00000-0  52237-4 0  5656
2 24946  86.3930 147.3788 0010051  86.8256  51.3093 14.32943029835246
IRIDIUM 28 [-]          
1 24948U 97051E   13241.37824906  .00000180  00000-0  56594-4 0  3142
2 24948  86.4019 147.1465 0002473 105.0684  31.3961 14.34831241835511
IRIDIUM 30 [+]          
1 24949U 97051F   13241.30904075  .00000274  00000-0  90714-4 0  5162
2 24949  86.4017 147.3202 0002043 100.3830 259.7596 14.34221054835475
IRIDIUM 31 [+]          
1 24950U 97051G   13241.30269880  .00000273  00000-0  90336-4 0  4722
2 24950  86.4017 147.3266 0002177  76.5164 283.6274 14.34220986835482
IRIDIUM 19 [+]          
1 24965U 97056A   13241.42664309  .00000262  00000-0  86328-4 0  4501
2 24965  86.4026 178.7331 0002194  97.9610 262.1835 14.34224030833646
IRIDIUM 35 [+]          
1 24966U 97056B   13241.43932763  .00000259  00000-0  85349-4 0  4996
2 24966  86.4024 178.7362 0002217  98.6199 261.5248 14.34224099833629
IRIDIUM 36 [-]          
1 24967U 97056C   13241.42554666  .00000221  00000-0  70985-4 0  4313
2 24967  86.4035 178.6756 0002294  95.7829  43.1452 14.34855730833804
IRIDIUM 37 [+]          
1 24968U 97056D   13241.41396721  .00000259  00000-0  85282-4 0  4563
2 24968  86.4026 178.8922 0002184  97.1130 263.0314 14.34222876833620
IRIDIUM 34 [+]          
1 24969U 97056E   13241.43298473  .00000259  00000-0  85281-4 0  4447
2 24969  86.4027 178.8236 0002189  97.7882 262.3562 14.34224113833628
IRIDIUM 43 [+]          
1 25039U 97069A   13241.51229159  .00000108  00000-0  31634-4 0  4518
2 25039  86.3915 241.9363 0002464  98.2756  14.0068 14.34216596827416
IRIDIUM 41 [+]          
1 25040U 97069B   13241.50614578  .00000092  00000-0  25860-4 0  4440
2 25040  86.3929 241.8990 0002432 109.7048   3.5176 14.34218528827415
IRIDIUM 40 [+]          
1 25041U 97069C   13241.43982855  .00000096  00000-0  27179-4 0  4741
2 25041  86.3928 241.8749 0002414 102.7206 257.4260 14.34218254827427
IRIDIUM 39 [+]          
1 25042U 97069D   13241.44629150  .00000051  00000-0  11111-4 0  4558
2 25042  86.3920 242.1364 0002136 114.5117 245.6301 14.34228067827406
IRIDIUM 38 [-]          
1 25043U 97069E   13241.50030176  .00000223  00000-0  71112-4 0  4457
2 25043  86.3930 240.5245 0003221 119.7931  26.6068 14.35267531827626
IRIDIUM 42 [+]          
1 25077U 97077A   13241.43349276  .00000079  00000-0  21221-4 0  4500
2 25077  86.3930 241.9838 0002421 102.5217 257.6250 14.34218398823265
IRIDIUM 44 [-]          
1 25078U 97077B   13241.45587104  .00000252  00000-0  78108-4 0  9433
2 25078  86.3940 234.8010 0003813 119.1405  34.2596 14.37234432824239
IRIDIUM 45 [+]          
1 25104U 97082A   13241.26905241  .00000194  00000-0  62035-4 0  4087
2 25104  86.3960 115.6112 0002016  98.6408  39.9908 14.34218973821435
IRIDIUM 24 [-]          
1 25105U 97082B   13241.21670863  .00000221  00000-0  65381-4 0  9906
2 25105  86.3904 101.2297 0010570 223.5153 275.3163 14.38958329823182
IRIDIUM 47 [+]          
1 25106U 97082C   13241.28041426  .00000233  00000-0  76125-4 0  3939
2 25106  86.3957 115.5390 0001946 106.6338  25.1644 14.34218862821434
IRIDIUM 49 [+]          
1 25108U 97082E   13241.29393723  .00000252  00000-0  83072-4 0  4179
2 25108  86.3960 115.5994 0002071 102.6470  33.5387 14.34215691821448
IRIDIUM 52 [+]          
1 25169U 98010A   13241.46547068  .00000116  00000-0  34311-4 0  1853
2 25169  86.3981 210.3494 0002305  99.7518  50.3265 14.34216793812879
IRIDIUM 56 [+]          
1 25170U 98010B   13241.45909396  .00000190  00000-0  60825-4 0  9758
2 25170  86.3983 210.4341 0002303  99.0268  50.9272 14.34213024812854
IRIDIUM 54 [+]          
1 25171U 98010C   13241.04316767  .00000108  00000-0  31497-4 0  4126
2 25171  86.3981 210.5390 0002292  99.4259 260.7196 14.34219536812961
IRIDIUM 50 [+]          
1 25172U 98010D   13241.45290675  .00000115  00000-0  34016-4 0  4567
2 25172  86.3981 210.3318 0002265  99.3875  51.3596 14.34219716812859
IRIDIUM 53 [+]          
1 25173U 98010E   13241.47137652  .00000115  00000-0  34138-4 0  4357
2 25173  86.3981 210.3308 0002282  99.4033  48.3184 14.34215089812864
IRIDIUM 51 [S]          
1 25262U 98018A   13241.39485901  .00000252  00000-0  82883-4 0  5643
2 25262  86.4029 179.0316 0002203 104.1481 255.9959 14.34224115812249
IRIDIUM 61 [+]          
1 25263U 98018B   13241.42029918  .00000248  00000-0  81313-4 0  3729
2 25263  86.4027 178.8587 0002184  98.8065 261.3379 14.34223905807955
IRIDIUM 55 [+]          
1 25272U 98019A   13241.35343889  .00000264  00000-0  87119-4 0  3759
2 25272  86.4015 147.1448 0002111  99.2003 260.9432 14.34220916807149
IRIDIUM 57 [+]          
1 25273U 98019B   13241.32806938  .00000262  00000-0  86346-4 0  4048
2 25273  86.4018 147.4005 0002096  99.1357 261.0076 14.34220769807140
IRIDIUM 58 [+]          
1 25274U 98019C   13241.33440712  .00000275  00000-0  91296-4 0  2327
2 25274  86.4022 147.5548 0002071 100.6453 259.4976 14.34221272807147
IRIDIUM 59 [+]          
1 25275U 98019D   13241.13144459  .00000273  00000-0  90244-4 0    31
2 25275  86.4018 147.5683 0002009  96.6986 263.4438 14.34221836807110
IRIDIUM 60 [+]          
1 25276U 98019E   13241.34709598  .00000281  00000-0  93340-4 0  4556
2 25276  86.4013 147.1519 0002140  98.6750 261.4688 14.34221153807147
IRIDIUM 62 [+]          
1 25285U 98021A   13241.16893816  .00000085  00000-0  23462-4 0  4309
2 25285  86.3921  84.1198 0002007 106.1000 254.0417 14.34220231806077
IRIDIUM 63 [+]          
1 25286U 98021B   13240.69529675 -.00000026  00000-0 -16289-4 0  4537
2 25286  86.3927  84.4973 0001863 110.7801 292.5982 14.34220515806009
IRIDIUM 64 [+]          
1 25287U 98021C   13241.11186100  .00000075  00000-0  19551-4 0  3826
2 25287  86.3921  84.1738 0002372  98.3814 261.7650 14.34217762806045
